STARLINK-31185          
1 58788U 24012B   25272.91789771 -.00005357  00000+0 -18536-3 0  9999
2 58788  42.9933 353.5855 0000697  77.4340 282.6589 15.27568130 96642
STARLINK-31166          
1 58789U 24012C   25273.92425642 -.00012261  00000+0 -43735-3 0  9997
2 58789  43.0015 347.3640 0000263 123.9266 236.1611 15.27539172 96804
STARLINK-31187          
1 58790U 24012D   25273.24352904  .00000773  00000+0  37612-4 0  9995
2 58790  43.0011 351.7275 0001597 285.7096  74.3579 15.27588428 96694
STARLINK-31162          
1 58791U 24012E   25273.92297838 -.00003312  00000+0 -11092-3 0  9992
2 58791  43.0003 347.3690 0000758  77.0523 283.0413 15.27570066 96801
STARLINK-31184          
1 58793U 24012G   25274.50629647  .00002926  00000+0  11580-3 0  9996
2 58793  43.0031 344.0011 0002045 280.4809  79.5812 15.27583165 96897
STARLINK-31192          
1 58794U 24012H   25274.28362704 -.00006524  00000+0 -23999-3 0  9997
2 58794  43.0042 345.7687 0000934 267.8708  92.2036 15.25883905 96858
STARLINK-31161          
1 58795U 24012J   25273.92038637  .00003745  00000+0  14547-3 0  9992
2 58795  43.0028 347.3433 0001584 265.8374  94.2297 15.27595530 96801
STARLINK-31195          
1 58796U 24012K   25274.49103777 -.00003204  00000+0 -10704-3 0  9997
2 58796  42.9995 344.7425 0002196 271.9395  88.1205 15.27553136 96881
STARLINK-31193          
1 58797U 24012L   25274.64864176  .00001625  00000+0  68563-4 0  9992
2 58797  43.0054 343.3488 0001558 290.4776  69.5908 15.27576400 96910
STARLINK-31168          
1 58798U 24012M   25274.26017057 -.00002604  00000+0 -85118-4 0  9994
2 58798  43.0066 345.5917 0002336 275.6896  84.3689 15.27580349 96859
STARLINK-31191          
1 58800U 24012P   25274.50245670  .00000178  00000+0  15981-4 0  9992
2 58800  42.9995 343.9670 0000883 271.9469  88.1281 15.27567178 96899
STARLINK-31170          
1 58801U 24012Q   25274.46276612 -.00005940  00000+0 -20662-3 0  9993
2 58801  43.0072 344.5281 0001142 272.5983  87.4738 15.27558131 96887
STARLINK-31141          
1 58803U 24012S   25273.23070699  .00007172  00000+0  26996-3 0  9999
2 58803  43.0048 351.6142 0001400 251.3413 108.7287 15.27570443 96692
STARLINK-31188          
1 58804U 24012T   25274.46661066  .00002973  00000+0  11749-3 0  9994
2 58804  43.0054 344.5533 0001769 255.9634 104.1021 15.27586279 96889
STARLINK-31138          
1 58806U 24012V   25274.66537138 -.00002544  00000+0 -83054-4 0  9995
2 58806  43.0050 343.4723 0001579 284.6026  75.4650 15.27537069 96914
STARLINK-31163          
1 58807U 24012W   25274.49473363  .00003116  00000+0  12266-3 0  9996
2 58807  43.0020 343.9079 0001059 251.6059 108.4677 15.27594008 96893
STARLINK-31174          
1 58808U 24012X   25274.49344233 -.00003908  00000+0 -13254-3 0  9999
2 58808  43.0094 343.8976 0001678 275.1342  84.9319 15.27586481 96890
STARLINK-31169          
1 58809U 24012Y   25274.46533455  .00002069  00000+0  84731-4 0  9997
2 58809  43.0040 344.5438 0001547 262.3707  97.6969 15.27571229 96886
NANOFF A                
1 58810U 23185T   25274.88241600  .00010064  00000+0  62642-3 0  9993
2 58810  97.5610 340.8931 0012031 114.1771 246.0717 15.09735697 94034
SORAYA                  
1 58817U 24015A   25274.89835973  .00000412  00000+0  15530-3 0  9996
2 58817  64.5120 111.1099 0026805 231.1968 128.6724 14.42565876 89513
2024-016A               
1 58820U 24016A   25274.84630619  .00042536  00000+0  10970-2 0  9991
2 58820  97.4639 357.5989 0007106 268.2986  91.7446 15.39030966 94134
2024-016B               
1 58821U 24016B   25274.83383410  .00066171  00000+0  16552-2 0  9998
2 58821  97.4646 356.4507 0007095 278.8834  81.1608 15.39853712 94059
2024-016C               
1 58822U 24016C   25274.67361755  .00002684  00000+0  10290-3 0  9992
2 58822  97.4613 352.2277 0012034 291.8655  68.1304 15.27343468 93772
2024-016D               
1 58823U 24016D   25274.88456669  .00042682  00000+0  12661-2 0  9990
2 58823  97.4563 354.1264 0007971 288.6571  71.3806 15.34666087 93933
STARLINK-31233          
1 58826U 24017A   25274.56113852  .00000158  00000+0  17478-4 0  9998
2 58826  53.1606 223.4098 0001300  88.7234 271.3916 15.30184485 95817
STARLINK-31271          
1 58827U 24017B   25274.84872030  .00006802  00000+0  24124-3 0  9997
2 58827  53.1612 222.3574 0001516  76.0295 284.0875 15.30247474 95732
STARLINK-31222          
1 58828U 24017C   25274.86131948 -.00002753  00000+0 -80853-4 0  9991
2 58828  53.1563 221.7206 0001235  86.3429 273.7713 15.30202906 95742
STARLINK-31258          
1 58829U 24017D   25274.56747331 -.00000877  00000+0 -17508-4 0  9990
2 58829  53.1601 223.4441 0001010  96.9754 263.1361 15.30175407 95696
STARLINK-31253          
1 58830U 24017E   25274.15658031 -.00001040  00000+0 -23010-4 0  9993
2 58830  53.1597 225.1465 0001171  77.8481 282.2651 15.30197374 95635
STARLINK-31232          
1 58831U 24017F   25274.28299064  .00001971  00000+0  78662-4 0  9999
2 58831  53.1596 224.5105 0001107  76.6002 283.5122 15.30189894 95651
STARLINK-31263          
1 58832U 24017G   25274.21650162 -.00000875  00000+0 -11894-4 0  9991
2 58832  53.1585 216.2893 0001561 158.3913 201.7158 15.39595099 95877
STARLINK-31171          
1 58834U 24017J   25274.52789494 -.00001694  00000+0 -45113-4 0  9999
2 58834  53.1589 200.0581 0001025  85.6901 274.4217 15.30185076 96013
STARLINK-31246          
1 58835U 24017K   25274.55796799 -.00006935  00000+0 -22245-3 0  9992
2 58835  53.1583 223.3819 0001237  79.7327 280.3813 15.30169344 95692
STARLINK-31251          
1 58836U 24017L   25274.56536226  .00000645  00000+0  33934-4 0  9999
2 58836  53.1611 223.4283 0001227  78.3580 281.7558 15.30180733 95805
STARLINK-31249          
1 58838U 24017N   25274.24510743 -.00001792  00000+0 -48374-4 0  9992
2 58838  53.1604 224.9830 0001272 122.1786 237.9338 15.30207326 95648
STARLINK-31250          
1 58839U 24017P   25274.53176705  .00004447  00000+0  12104-3 0  9990
2 58839  53.1576 214.7001 0000897  91.7235 268.3872 15.39631042 95765
STARLINK-31248          
1 58840U 24017Q   25274.61328294 -.00000344  00000+0  52666-6 0  9996
2 58840  53.1603 235.7771 0002673  89.8464 270.2843 15.30184614 95636
STARLINK-31236          
1 58841U 24017R   25274.83927757 -.00002353  00000+0 -67377-4 0  9996
2 58841  53.1597 222.2938 0001000  95.2408 264.8707 15.30188733 95732
STARLINK-31228          
1 58842U 24017S   25274.24828625 -.00001978  00000+0 -54688-4 0  9999
2 58842  53.1602 225.0041 0001358  87.9984 272.1172 15.30182718 95644
STARLINK-31280          
1 58843U 24017T   25274.84244821  .00000653  00000+0  34195-4 0  9994
2 58843  53.1616 222.3118 0001303 102.4458 257.6688 15.30178970 95739
STARLINK-31269          
1 58844U 24017U   25274.80846561  .00001561  00000+0  64847-4 0  9996
2 58844  53.1599 312.4372 0001390  93.0163 267.0997 15.30191204 94447
STARLINK-31264          
1 58845U 24017V   25274.82313772 -.00002238  00000+0 -63508-4 0  9999
2 58845  53.1610 311.8260 0001159  72.0622 288.0505 15.30176876 94458
STARLINK-31273          
1 58846U 24017W   25274.84561277  .00010262  00000+0  35838-3 0  9995
2 58846  53.1592 222.3330 0000891 101.1927 258.9174 15.30174514 95733
STARLINK-31262          
1 58847U 24017X   25274.83052389  .00002300  00000+0  89819-4 0  9997
2 58847  53.1615 311.8710 0001511  83.0791 277.0382 15.30172848 94452
AAC-HSI-SAT3            
1 58848U 23174DH  25274.81771282  .00006722  00000+0  37410-3 0  9990
2 58848  97.3788 337.4943 0011097 177.1475 182.9822 15.13912025104781
2024-018A               
1 58849U 24018A   25274.89734425  .00009473  00000+0  10140-2 0  9991
2 58849  58.6877  53.8817 0439032 160.5080 201.3342 14.37966295 88003
2024-018B               
1 58850U 24018B   25274.83418359  .00015050  00000+0  15474-2 0  9995
2 58850  58.6948  47.5735 0425193 162.0009 199.6614 14.41440096 88118
2024-018C               
1 58851U 24018C   25274.84461863  .00011206  00000+0  11882-2 0  9993
2 58851  58.6847  49.7255 0432243 161.9729 199.7183 14.39358674 88073
STARLINK-31238          
1 58853U 24019A   25274.83335647  .00133405  00000+0  47895-2 0  9994
2 58853  43.0032  65.8248 0001666 278.4958 309.1028 15.27448709  5902
STARLINK-31158          
1 58854U 24019B   25274.81389278 -.00003092  00000+0 -10291-3 0  9993
2 58854  43.0017  66.2341 0001165 257.4879 102.5842 15.27567288 94785
STARLINK-31237          
1 58855U 24019C   25274.72151814  .00000799  00000+0  38532-4 0  9995
2 58855  42.9978  66.4214 0000292 207.7787 152.3049 15.27583590 94772
STARLINK-31244          
1 58856U 24019D   25274.73822425 -.00006057  00000+0 -21090-3 0  9995
2 58856  43.0017  66.5273 0000969 248.0319 112.0430 15.27561662 94778
STARLINK-31216          
1 58857U 24019E   25274.83335647  .02109659  26832-2  57028-2 0  9997
2 58857  42.9988  39.1651 0002938 298.6610 222.3150 15.94060561  5900
STARLINK-31226          
1 58858U 24019F   25274.49209713 -.00004458  00000+0 -15262-3 0  9996
2 58858  43.0028  68.1189 0002414 263.6624  96.3953 15.27562616 94735
STARLINK-31197          
1 58859U 24019G   25274.69982757 -.00002502  00000+0 -81486-4 0  9995
2 58859  43.0037  67.0986 0000697 243.8134 116.2646 15.27565537 94765
STARLINK-31213          
1 58860U 24019H   25274.41257965  .00003190  00000+0  12544-3 0  9993
2 58860  42.9982  68.3870 0001811   0.6535 359.4318 15.27567661 94726
STARLINK-31199          
1 58861U 24019J   25274.73565198 -.00003707  00000+0 -12529-3 0  9998
2 58861  43.0035  66.5081 0001779 262.3079  97.7571 15.27568448 94777
STARLINK-31200          
1 58862U 24019K   25274.73693891 -.00000212  00000+0  18058-5 0  9993
2 58862  43.0002  66.5160 0001451 250.5443 109.5252 15.27572302 94773
STARLINK-31149          
1 58863U 24019L   25274.70995926 -.00006115  00000+0 -21304-3 0  9990
2 58863  43.0027  66.3179 0001675 295.5473  64.5206 15.27553285 94777
